#aV2022 10  5  0  0  0.00000000     288 DD+AD WGS84 FIT  NGA
## 2230 259200.00000000   300.00000000 59857 0.0000000000000
+   32     1  2  3  4  5  6  7  8  9 10 11 12 13 14 15 16 17
+         18 19 20 21 22 23 24 25 26 27 28 29 30 31 32  0  0
+          0  0  0  0  0  0  0  0  0  0  0  0  0  0  0  0  0
+          0  0  0  0  0  0  0  0  0  0  0  0  0  0  0  0  0
+          0  0  0  0  0  0  0  0  0  0  0  0  0  0  0  0  0
++         2  2  2  2  2  2  2  2  2  2  2  2  2  2  2  2  2
++         2  2  2  2  2  2  2  2  2  2  2  2  2  2  2  0  0
++         0  0  0  0  0  0  0  0  0  0  0  0  0  0  0  0  0
++         0  0  0  0  0  0  0  0  0  0  0  0  0  0  0  0  0
++         0  0  0  0  0  0  0  0  0  0  0  0  0  0  0  0  0
%c cc cc ccc ccc cccc cccc cccc cccc ccccc ccccc ccccc ccccc
%c cc cc ccc ccc cccc cccc cccc cccc ccccc ccccc ccccc ccccc
%f  0.0000000  0.000000000  0.00000000000  0.000000000000000
%f  0.0000000  0.000000000  0.00000000000  0.000000000000000
%i    0    0    0    0      0      0      0      0         0
%i    0    0    0    0      0      0      0      0         0
/*      NGA, ST. LOUIS,MO.                                  
/*   EPHEMERIS COMPUTED FROM 2 DAYS OF DATA                 
/*   EPOCHA v8 SMOOTHER                                     
/*   G2139 IERS2010 SATIGS SATAPC                           
*  2022 10  5 14 10  0.00000000
P  1  -2410.288077  16079.028290 -21235.263448    272.470828                    
V  1 -24568.826197   9288.450061  10295.414863     -0.062241                    
P  2   6416.102302 -18165.467163  19012.902048   -643.555509                    
V  2  20647.081292  -9568.865928 -16507.613890      0.014769                    
P  3   5482.029103  19153.569428 -17741.626562   -360.835180                    
V  3 -18537.643862 -12289.989004 -19030.606300     -0.048934                    
P  4   -536.971246  26024.912245   5012.138678   -108.354763                    
V  4  -3747.466742   5869.034490 -30988.615292      0.059457                    
P  5   6041.739596 -14044.136525  21531.914288    -99.235857                    
V  5  23120.602090  15385.242014   3638.648349     -0.014486                    
P  6  25116.462892  -6030.244236  -6283.602839    482.267570                    
V  6  -6698.238174   4773.842578 -30979.157453      0.113936                    
P  7  14141.503247  10036.287104  20658.588625    301.640473                    
V  7 -22944.314192  10466.417466  10355.726340     -0.035400                    
P  8  -6062.082465  25132.758652   5137.470170    -87.513331                    
V  8  -2357.042927  -6903.468471  31106.885635     -0.016538                    
P  9   8366.869629  20429.350990  14661.398993   -287.274359                    
V  9  -4133.485069  18460.892568 -23280.858195      0.050685                    
P 10 -23167.429151 -10288.437536  -8293.930948     -6.196895                    
V 10  -7337.561307  -7951.667585  29511.975490     -0.016576                    
P 11  23064.610500 -12131.782581   5026.529783    -22.577952                    
V 11   6915.231140    321.618208 -30996.157375     -0.039116                    
P 12  -3764.282600 -19575.110953 -17870.473644   -288.693122                    
V 12  17604.263561  13442.710632 -18611.283479     -0.044429                    
P 13  13057.270501 -20179.487310  10924.684677    400.410948                    
V 13  -1289.642836  14322.711892  27749.460291      0.071220                    
P 14  22699.856157  12129.789117  -6783.145425    -97.970274                    
V 14   4877.985602   7660.323711  29874.225199      0.035109                    
P 15   2972.926622 -25783.717752   4399.919011    -23.406742                    
V 15   4060.889200   6153.634687  30589.351631      0.031383                    
P 16 -13137.855454   8029.900055  21413.581624   -525.704276                    
V 16 -20464.788393 -18775.627590  -4997.983405     -0.007032                    
P 17  13311.007373   7262.036475 -21360.475221    665.823407                    
V 17  -5603.313028  27572.357534   5825.554409      0.036900                    
P 18 -14923.208003  -8791.650412  20171.179118     25.259098                    
V 18  23352.302376 -10400.727523  12603.898635     -0.131743                    
P 19  15683.504974  -4099.613929 -21226.511482    219.778957                    
V 19  -5242.337446  25898.105786  -9223.121571      0.050612                    
P 20  18208.081419  -5520.211230  18447.616271    480.853714                    
V 20  20001.380220  12547.174022 -16222.464443     -0.030940                    
P 21 -10949.466168  17840.623589 -15278.657168    158.495892                    
V 21 -19636.881980   7391.305354  22567.339548     -0.005703                    
P 22 -15565.437140   7665.348146 -19640.757474    340.175701                    
V 22   3950.775831 -25642.824477 -13038.504387      0.069196                    
P 23 -20974.988146 -16314.808161   1765.180058     -0.765145                    
V 23   3220.534774   -668.522131  31770.982153     -0.003283                    
P 24   5510.685137 -18376.465516 -18518.151023    111.178649                    
V 24  21360.973099  -9008.547560  15992.041863     -0.140528                    
P 25 -15113.812546 -19814.536542  -9861.914372    379.243504                    
V 25  11105.760745   5208.662213 -28052.711447      0.039612                    
P 26 -20522.447681   1347.122560  16887.837873    231.307323                    
V 26 -16866.102393 -13596.771646 -18987.005569      0.014755                    
P 27 -12452.811288  17610.100959  15013.095951    202.749582                    
V 27    202.372259 -19703.743055  23336.139780     -0.056415                    
P 28  21092.572506   5686.548343 -14427.715274    332.511859                    
V 28  12752.054030  14651.468758  23839.892787     -0.040281                    
P 29  -5432.903814 -21679.910528  14241.399756   -557.219355                    
V 29   5279.814034 -17460.180647 -24570.232252     -0.030682                    
P 30  22670.178671   1848.739524  14011.033425   -537.216277                    
V 30 -15326.137511   9017.899458  23508.595295     -0.000466                    
P 31 -25572.070727   6197.124165  -5272.927154   -195.742281                    
V 31   5042.772491  -4712.944508 -30397.804157     -0.013174                    
P 32 -14835.960981  -3650.964627 -21586.142086   -253.967057                    
V 32   3249.440651 -27570.309901   2220.834825     -0.117307                    
EOF
